32264,GLOBALSTAR M070,2007,114.08,450.0,+,51.98,Active,1,LEO,Kazakhstan,Globalstar,Commercial,Communications,Soyuz,1 32264U 07048B   25083.59421655 -.00000077  00000+0  14896-3 0  9996,2 32264  51.9774  26.2058 0000417  49.3893 121.5132 12.62314261803962,12.62314261,4.17e-05,LEO
32265,GLOBALSTAR M066,2007,116.58,450.0,+,51.96,Active,1,LEO,Kazakhstan,Globalstar,Commercial,Communications,Soyuz,1 32265U 07048C   25083.54372145 -.00000046  00000+0  39590-3 0  9995,2 32265  51.9630 270.5723 0002103  69.1718 325.3634 12.35252163804848,12.35252163,0.0002103,LEO
37188,GLOBALSTAR M079,2010,114.08,700.0,+,52.01,Active,1,LEO,Kazakhstan,Globalstar,Commercial,Communications,Soyuz,1 37188U 10054A   25083.92064381 -.00000085  00000+0  10413-3 0  9993,2 37188  52.0057  36.3047 0000739  84.9906 315.7308 12.62271974666495,12.62271974,7.39e-05,LEO
37189,GLOBALSTAR M074,2010,114.08,700.0,+,52.0,Active,1,LEO,Kazakhstan,Globalstar,Commercial,Communications,Soyuz,1 37189U 10054B   25083.58013144 -.00000094  00000+0  53618-4 0  9992,2 37189  52.0032  36.6785 0000350  92.3763  78.9523 12.62267349666379,12.62267349,3.5e-05,LEO
37190,GLOBALSTAR M076,2010,114.08,700.0,+,52.0,Active,1,LEO,Kazakhstan,Globalstar,Commercial,Communications,Soyuz,1 37190U 10054C   25083.89259428 -.00000071  00000+0  18458-3 0  9992,2 37190  52.0050  35.8857 0000604 105.5323 289.5196 12.62260032666494,12.62260032,6.04e-05,LEO
37191,GLOBALSTAR M077,2010,114.08,700.0,+,52.01,Active,1,LEO,Kazakhstan,Globalstar,Commercial,Communications,Soyuz,1 37191U 10054D   25083.51428566 -.00000065  00000+0  21488-3 0  9993,2 37191  52.0102 353.8766 0000657  79.4097  93.2089 12.62272129666457,12.62272129,6.57e-05,LEO
